QZS-1R                  
1 49336U 21096A   24094.88308694 -.00000197  00000+0  00000+0 0  9994
2 49336  35.7910  91.6523 0751397 270.0080 283.4883  1.00284481  8942
